      2.10          N: GNSS NAV DATA                        RINEX VERSION / TYPE
fic2rin                                 05/17/2019 00:19:19 PGM / RUN BY / DATE
                                                            END OF HEADER
14 19  5 16 14  0  0.0-8.024461567402e-05 1.591615728103e-12 0.000000000000e+00
    4.500000000000e+01-8.781250000000e+00 4.428398746297e-09-4.186176583629e-01
   -4.097819328308e-07 1.060703338590e-02 1.225806772709e-05 5.153705301285e+03
    3.960000000000e+05-9.126961231232e-08-5.625891363129e-01 1.490116119385e-07
    9.606967490357e-01 1.487187500000e+02-1.940230900233e+00-8.051763959717e-09
   -2.128660095809e-10 1.000000000000e+00 2.053000000000e+03 0.000000000000e+00
    2.400000000000e+00 0.000000000000e+00-9.778887033463e-09 4.500000000000e+01
    3.888000000000e+05 4.000000000000e+00
30 19  5 16 14  0  0.0-1.056897453964e-04-7.162270776462e-12 0.000000000000e+00
    6.500000000000e+01 1.266562500000e+02 5.123427697043e-09-2.944669264106e+00
    6.625428795815e-06 3.996958723292e-03 7.409602403641e-06 5.153596044540e+03
    3.960000000000e+05-1.862645149231e-09 4.485984425429e-01-5.960464477539e-08
    9.414087315324e-01 2.309375000000e+02-2.974659250041e+00-8.413207586723e-09
    4.732339978098e-10 1.000000000000e+00 2.053000000000e+03 0.000000000000e+00
    2.400000000000e+00 0.000000000000e+00 3.725290298462e-09 6.500000000000e+01
    3.888000000000e+05 4.000000000000e+00
15 19  5 16 14  0  0.0-3.126841038465e-04 2.160049916711e-12 0.000000000000e+00
    8.200000000000e+01-3.593750000000e+01 5.166643782881e-09-1.046390550481e+00
   -1.685693860054e-06 1.131268113386e-02 1.155398786068e-05 5.153689390182e+03
    3.960000000000e+05 2.495944499969e-07-7.350162390509e-01 9.499490261078e-08
    9.280246754270e-01 1.336875000000e+02 7.735249491047e-01-8.347133405897e-09
   -4.060883437809e-10 1.000000000000e+00 2.053000000000e+03 0.000000000000e+00
    2.400000000000e+00 0.000000000000e+00-1.117587089539e-08 8.200000000000e+01
    3.888000000000e+05 4.000000000000e+00
21 19  5 16 14  0  0.0-1.917160116136e-04 7.389644451905e-12 0.000000000000e+00
    5.000000000000e+01 3.131250000000e+01 4.584833833875e-09 2.103852184105e+00
    1.534819602966e-06 2.462060772814e-02 9.441748261452e-06 5.153736520767e+03
    3.960000000000e+05 3.948807716370e-07-2.794136779972e+00-1.266598701477e-07
    9.486084155653e-01 1.825000000000e+02-1.443119064479e+00-7.697106329660e-09
    4.257320191617e-10 1.000000000000e+00 2.053000000000e+03 0.000000000000e+00
    2.400000000000e+00 0.000000000000e+00-1.024454832077e-08 5.000000000000e+01
    3.888000000000e+05 4.000000000000e+00
12 19  5 16 14  0  0.0 2.419566735625e-04-3.410605131648e-12 0.000000000000e+00
    4.200000000000e+01-4.128125000000e+01 4.467328939325e-09 2.564137611469e+00
   -2.373009920120e-06 7.660275092348e-03 2.035871148109e-06 5.153642827988e+03
    3.960000000000e+05-2.421438694000e-08 1.520366111523e+00-9.126961231232e-08
    9.826203890091e-01 3.477500000000e+02 1.081890117043e+00-8.234628719625e-09
   -3.410856361573e-10 1.000000000000e+00 2.053000000000e+03 0.000000000000e+00
    2.400000000000e+00 0.000000000000e+00-1.210719347000e-08 4.200000000000e+01
    3.888000000000e+05 4.000000000000e+00
31 19  5 16 14  0  0.0 3.778841346502e-05-2.614797267597e-12 0.000000000000e+00
    6.900000000000e+01 1.152812500000e+02 4.630550023852e-09 2.962606442073e+00
    6.023794412613e-06 9.211776428856e-03 8.055940270424e-06 5.153615942001e+03
    3.960000000000e+05-1.993030309677e-07 4.342784143763e-01-1.862645149231e-08
    9.605080369923e-01 2.246562500000e+02 3.658385072137e-03-8.011762293487e-09
    4.339466470482e-10 1.000000000000e+00 2.053000000000e+03 0.000000000000e+00
    2.400000000000e+00 0.000000000000e+00-1.350417733192e-08 6.900000000000e+01
    3.888000000000e+05 4.000000000000e+00
26 19  5 16 14  0  0.0 2.028206363320e-04 9.663381206337e-12 0.000000000000e+00
    5.600000000000e+01-2.306250000000e+01 5.305935299217e-09 1.613327371069e+00
   -9.853392839432e-07 3.730789059773e-03 1.652166247368e-06 5.153601104736e+03
    3.960000000000e+05 9.313225746155e-08 1.427742834328e+00 9.499490261078e-08
    9.513909793788e-01 3.429062500000e+02 1.732859395178e-01-8.765722270374e-09
   -2.039370662260e-10 1.000000000000e+00 2.053000000000e+03 0.000000000000e+00
    2.400000000000e+00 0.000000000000e+00 7.450580596924e-09 5.600000000000e+01
    3.888000000000e+05 4.000000000000e+00
20 19  5 16 14  0  0.0 5.247532390058e-04 2.273736754432e-13 0.000000000000e+00
    4.200000000000e+01-5.843750000000e+00 5.641306411627e-09-2.714719660730e+00
   -1.322478055954e-07 4.390407935716e-03 3.242865204811e-06 5.153678863525e+03
    3.960000000000e+05 3.725290298462e-09-1.809279052329e+00 6.891787052155e-08
    9.302061379051e-01 2.978125000000e+02 2.356259214077e+00-8.707862717435e-09
    5.964534161075e-11 1.000000000000e+00 2.053000000000e+03 0.000000000000e+00
    2.400000000000e+00 0.000000000000e+00-8.847564458847e-09 4.200000000000e+01
    3.888000000000e+05 4.000000000000e+00
22 19  5 16 14  0  0.0-7.018046453595e-04-6.252776074689e-12 0.000000000000e+00
    1.020000000000e+02-1.965625000000e+01 5.700237437769e-09-9.808906946518e-01
   -9.145587682724e-07 7.251572795212e-03 3.987923264503e-06 5.153797170639e+03
    3.960000000000e+05-1.043081283569e-07-1.760547957889e+00 4.842877388000e-08
    9.269093262025e-01 2.869687500000e+02-1.348105605895e+00-8.880369903051e-09
    4.143029716675e-11 1.000000000000e+00 2.053000000000e+03 0.000000000000e+00
    2.400000000000e+00 0.000000000000e+00-1.816079020500e-08 1.020000000000e+02
    3.888000000000e+05 4.000000000000e+00
23 19  5 16 14  0  0.0-1.859702169895e-04 1.591615728103e-12 0.000000000000e+00
    5.200000000000e+01-7.031250000000e+00 4.751626495745e-09-1.569796682687e+00
   -4.637986421585e-07 1.322402048390e-02 1.108646392822e-05 5.153587932587e+03
    3.960000000000e+05 2.849847078323e-07-6.602971495581e-01-1.862645149231e-09
    9.433974955153e-01 1.491875000000e+02-2.260044508108e+00-7.961403052965e-09
   -2.103659054415e-10 1.000000000000e+00 2.053000000000e+03 0.000000000000e+00
    2.400000000000e+00 0.000000000000e+00-2.048909664154e-08 5.200000000000e+01
    3.888000000000e+05 4.000000000000e+00
13 19  5 16 14  0  0.0-6.341375410557e-05 1.591615728103e-12 0.000000000000e+00
    9.200000000000e+01 8.125000000000e-01 4.151958660029e-09-1.191058171165e+00
    1.303851604462e-07 3.539378638379e-03 1.366622745991e-05 5.153671640396e+03
    3.960000000000e+05 1.117587089539e-08-5.182784858421e-01 5.401670932770e-08
    9.681649326641e-01 1.199687500000e+02 1.299580965769e+00-7.794610391095e-09
   -2.639395655709e-10 1.000000000000e+00 2.053000000000e+03 0.000000000000e+00
    3.400000000000e+00 0.000000000000e+00-1.117587089539e-08 9.200000000000e+01
    3.888000000000e+05 4.000000000000e+00
11 19  5 16 14  0  0.0-6.055068224669e-04 7.958078640513e-12 0.000000000000e+00
    9.200000000000e+01 1.271875000000e+01 5.192359139743e-09-3.059358634384e+00
    7.543712854385e-07 1.658301369753e-02 1.159496605396e-05 5.153707118988e+03
    3.960000000000e+05 1.192092895508e-07 3.103127371722e+00 1.210719347000e-07
    9.097410170164e-01 1.262500000000e+02 1.885485805161e+00-8.043549331830e-09
    2.317953694933e-10 1.000000000000e+00 2.053000000000e+03 0.000000000000e+00
    2.400000000000e+00 0.000000000000e+00-1.257285475731e-08 9.200000000000e+01
    3.888000000000e+05 4.000000000000e+00
10 19  5 16 14  0  0.0 4.472956061363e-05-1.080024958355e-11 0.000000000000e+00
    9.700000000000e+01-2.493750000000e+01 4.917704842146e-09 1.858473496812e+00
   -1.290813088417e-06 4.533348372206e-03 3.946945071220e-06 5.153654851913e+03
    3.960000000000e+05-5.587935447693e-08-1.691088424621e+00 3.539025783539e-08
    9.624279399582e-01 3.032187500000e+02-2.692668667887e+00-8.383920652519e-09
   -1.146476326769e-10 1.000000000000e+00 2.053000000000e+03 0.000000000000e+00
    2.400000000000e+00 0.000000000000e+00 1.862645149231e-09 9.700000000000e+01
    3.888000000000e+05 4.000000000000e+00
18 19  5 16 14  0  0.0 5.365489050746e-05 3.410605131648e-12 0.000000000000e+00
    9.500000000000e+01 4.962500000000e+01 4.441613582462e-09-2.601254183809e+00
    2.585351467133e-06 1.529673417099e-02 9.309500455856e-06 5.153702741623e+03
    3.960000000000e+05 1.229345798492e-07-2.785045106913e+00-1.303851604462e-08
    9.542794262771e-01 1.950937500000e+02 1.388616759679e+00-7.760680406347e-09
    5.450227023832e-10 1.000000000000e+00 2.053000000000e+03 0.000000000000e+00
    3.400000000000e+00 0.000000000000e+00-5.587935447693e-09 9.500000000000e+01
    3.888000000000e+05 4.000000000000e+00
29 19  5 16 14  0  0.0 2.002487890422e-04-9.322320693173e-12 0.000000000000e+00
    1.830000000000e+02-8.859375000000e+01 3.617650689672e-09 4.214341925971e-01
   -4.602596163750e-06 1.056487322785e-03 1.223757863045e-05 5.153762315750e+03
    3.960000000000e+05-3.352761268616e-08 2.565268278909e+00-5.587935447693e-08
    9.857297643327e-01 1.575937500000e+02 1.666509073386e+00-7.607459738377e-09
   -3.103700710164e-10 1.000000000000e+00 2.053000000000e+03 0.000000000000e+00
    3.400000000000e+00 0.000000000000e+00-9.778887033463e-09 1.830000000000e+02
    3.888000000000e+05 4.000000000000e+00
28 19  5 16 14  0  0.0 7.678419351578e-04 1.136868377216e-13 0.000000000000e+00
    1.330000000000e+02-4.259375000000e+01 4.671980321019e-09 6.471907143424e-01
   -2.382323145866e-06 1.904804201331e-02 3.369525074959e-06 5.153697628021e+03
    3.960000000000e+05-2.700835466385e-07 1.543256112754e+00-8.009374141693e-08
    9.819109088507e-01 3.327187500000e+02-1.467191862773e+00-8.711077137042e-09
   -3.578720496645e-10 1.000000000000e+00 2.053000000000e+03 0.000000000000e+00
    3.400000000000e+00 0.000000000000e+00-1.117587089539e-08 1.330000000000e+02
    3.888000000000e+05 4.000000000000e+00
